IRIDIUM 112             
1 41925U 17003J   25062.68442235  .00000396  00000+0  13423-3 0  9994
2 41925  86.3924 284.9034 0002228  92.6944 267.4507 14.34216818425834
IRIDIUM 111             
1 41926U 17003K   25062.67174022  .00000022  00000+0  89706-6 0  9996
2 41926  86.3926 284.9687 0002150  84.2213 275.9228 14.34216704425817
IRIDIUM 113             
1 42803U 17039A   25062.79124245  .00000089  00000+0  24823-4 0  9995
2 42803  86.4039 158.7843 0002328 106.4983 253.6468 14.34216707403760
IRIDIUM 123             
1 42804U 17039B   25062.90248881  .00000074  00000+0  19438-4 0  9992
2 42804  86.4034 190.1527 0002167  89.6066 270.5378 14.34216883402548
IRIDIUM 120             
1 42805U 17039C   25062.78489274  .00000655  00000+0  22687-3 0  9996
2 42805  86.4029 158.6307 0001902  88.5901 271.5512 14.34213445403756
IRIDIUM 115             
1 42806U 17039D   25062.77814887  .00000911  00000+0  26473-3 0  9990
2 42806  86.4567 158.6969 0002655  84.5294 275.6210 14.43291022406418
IRIDIUM 118             
1 42807U 17039E   25062.86443258 -.00000190  00000+0 -74965-4 0  9992
2 42807  86.4037 190.1690 0001931  99.9389 260.2024 14.34216659402539
IRIDIUM 117             
1 42808U 17039F   25062.88345624  .00000083  00000+0  22563-4 0  9999
2 42808  86.4032 190.1230 0002296  90.2704 269.8754 14.34214334402561
